HIMAWARI-8              
1 40267U 14060A   24285.88660553 -.00000274  00000+0  00000+0 0  9994
2 40267   0.0259 154.7055 0000684  75.3068 250.8298  1.00272252 36612
